{"fetched_at":"2026-03-29T16:36:15Z","count":15609,"tles":[{"name":"STARLINK-11296 [DTC]","line1":"1 61699U 24195N   26087.76223404 -.00002777  00000+0 -18088-4 0  9996","line2":"2 61699  53.1585 291.9067 0000873  49.4793 310.6301 15.69694673 82031","category":"Starlink"}]}